ORBCOMM FM24            
1 25478U 98053D   25245.55192698  .00002132  00000+0  74081-3 0  9994
2 25478  45.0072 262.2351 0004670 265.7962  94.2353 14.38260394408582
ORBCOMM FM25            
1 25479U 98053E   25245.38586296  .00002149  00000+0  74672-3 0  9991
2 25479  45.0063 261.3042 0006999 271.7065  88.2981 14.38231507408851
ORBCOMM FM26            
1 25480U 98053F   25245.37895135  .00001872  00000+0  66924-3 0  9990
2 25480  45.0059 258.3568 0008649 284.9127  75.0763 14.37265919408750
ORBCOMM FM27            
1 25481U 98053G   25245.44136546  .00002262  00000+0  78309-3 0  9997
2 25481  45.0046 261.2151 0003270 272.0248  88.0226 14.38264207408797
ORBCOMM FM28            
1 25482U 98053H   25245.26097334  .00002333  00000+0  80341-3 0  9997
2 25482  45.0045 199.4633 0006673 320.7349  39.3015 14.38434270409455
ORBCOMM FM30            
1 25980U 99065A   25245.56866291  .00002039  00000+0  72233-3 0  9997
2 25980  45.0312  83.4068 0006793  40.7697 319.3658 14.37435814345588
ORBCOMM FM31            
1 25981U 99065B   25244.98925622  .00001704  00000+0  61238-3 0  9998
2 25981  45.0226  79.6210 0004346  64.6217 295.5081 14.37366139345054
ORBCOMM FM32            
1 25982U 99065C   25245.29540220  .00001976  00000+0  71580-3 0  9993
2 25982  45.0152  95.2685 0006825  56.8058 303.3443 14.36420021345682
